[{"OBJECT_NAME":"STARLINK-37135","OBJECT_ID":"2026-073A","EPOCH":"2026-04-27T08:27:17.228736","MEAN_MOTION":15.75214737,"ECCENTRICITY":0.0001352,"INCLINATION":97.285,"RA_OF_ASC_NODE":315.476,"ARG_OF_PERICENTER":92.2302,"MEAN_ANOMALY":267.9118,"EPHEMERIS_TYPE":0,"CLASSIFICATION_TYPE":"U","NORAD_CAT_ID":68602,"ELEMENT_SET_NO":999,"REV_AT_EPOCH":321,"BSTAR":0.0010067,"MEAN_MOTION_DOT":0.00152905,"MEAN_MOTION_DDOT":0},{"OBJECT_NAME":"STARLINK-37189","OBJECT_ID":"2026-073B","EPOCH":"2026-04-27T15:23:31.608384","MEAN_MOTION":15.75250474,"ECCENTRICITY":0.0001527,"INCLINATION":97.2833,"RA_OF_ASC_NODE":315.8484,"ARG_OF_PERICENTER":79.1188,"MEAN_ANOMALY":281.0249,"EPHEMERIS_TYPE":0,"CLASSIFICATION_TYPE":"U","NORAD_CAT_ID":68603,"ELEMENT_SET_NO":999,"REV_AT_EPOCH":326,"BSTAR":0.0012671,"MEAN_MOTION_DOT":0.00193717,"MEAN_MOTION_DDOT":0},{"OBJECT_NAME":"STARLINK-37130","OBJECT_ID":"2026-073C","EPOCH":"2026-04-27T12:46:59.587104","MEAN_MOTION":15.75212066,"ECCENTRICITY":0.0001135,"INCLINATION":97.2841,"RA_OF_ASC_NODE":315.6885,"ARG_OF_PERICENTER":75.6204,"MEAN_ANOMALY":284.5187,"EPHEMERIS_TYPE":0,"CLASSIFICATION_TYPE":"U","NORAD_CAT_ID":68604,"ELEMENT_SET_NO":999,"REV_AT_EPOCH":324,"BSTAR":0.00086898,"MEAN_MOTION_DOT":0.00131625,"MEAN_MOTION_DDOT":0},{"OBJECT_NAME":"STARLINK-37131","OBJECT_ID":"2026-073D","EPOCH":"2026-04-27T20:00:03.000384","MEAN_MOTION":15.75212008,"ECCENTRICITY":0.0001389,"INCLINATION":97.2834,"RA_OF_ASC_NODE":316.0435,"ARG_OF_PERICENTER":95.4234,"MEAN_ANOMALY":260.9256,"EPHEMERIS_TYPE":0,"CLASSIFICATION_TYPE":"U","NORAD_CAT_ID":68605,"ELEMENT_SET_NO":999,"REV_AT_EPOCH":443,"BSTAR":-0.00057718,"MEAN_MOTION_DOT":-0.00085447,"MEAN_MOTION_DDOT":0},{"OBJECT_NAME":"STARLINK-37253","OBJECT_ID":"2026-073E","EPOCH":"2026-04-27T15:07:27.493248","MEAN_MOTION":15.7823465,"ECCENTRICITY":9.38e-5,"INCLINATION":97.2834,"RA_OF_ASC_NODE":315.8639,"ARG_OF_PERICENTER":103.49,"MEAN_ANOMALY":256.6471,"EPHEMERIS_TYPE":0,"CLASSIFICATION_TYPE":"U","NORAD_CAT_ID":68606,"ELEMENT_SET_NO":999,"REV_AT_EPOCH":326,"BSTAR":-0.0057727,"MEAN_MOTION_DOT":-0.00888593,"MEAN_MOTION_DDOT":0},{"OBJECT_NAME":"STARLINK-37246","OBJECT_ID":"2026-073F","EPOCH":"2026-04-27T12:55:37.320960","MEAN_MOTION":15.75245738,"ECCENTRICITY":0.000148,"INCLINATION":97.2844,"RA_OF_ASC_NODE":315.681,"ARG_OF_PERICENTER":59.6607,"MEAN_ANOMALY":300.4805,"EPHEMERIS_TYPE":0,"CLASSIFICATION_TYPE":"U","NORAD_CAT_ID":68607,"ELEMENT_SET_NO":999,"REV_AT_EPOCH":324,"BSTAR":0.00095404,"MEAN_MOTION_DOT":0.00144962,"MEAN_MOTION_DDOT":0},{"OBJECT_NAME":"STARLINK-37243","OBJECT_ID":"2026-073G","EPOCH":"2026-04-27T15:04:18.513120","MEAN_MOTION":15.80899418,"ECCENTRICITY":0.0001172,"INCLINATION":97.2832,"RA_OF_ASC_NODE":315.8668,"ARG_OF_PERICENTER":89.0309,"MEAN_ANOMALY":271.1093,"EPHEMERIS_TYPE":0,"CLASSIFICATION_TYPE":"U","NORAD_CAT_ID":68608,"ELEMENT_SET_NO":999,"REV_AT_EPOCH":326,"BSTAR":0.0011207,"MEAN_MOTION_DOT":0.00220895,"MEAN_MOTION_DDOT":0},{"OBJECT_NAME":"STARLINK-37250","OBJECT_ID":"2026-073H","EPOCH":"2026-04-27T13:32:04.091136","MEAN_MOTION":15.80955332,"ECCENTRICITY":0.0001628,"INCLINATION":97.2828,"RA_OF_ASC_NODE":315.7999,"ARG_OF_PERICENTER":103.171,"MEAN_ANOMALY":256.974,"EPHEMERIS_TYPE":0,"CLASSIFICATION_TYPE":"U","NORAD_CAT_ID":68609,"ELEMENT_SET_NO":999,"REV_AT_EPOCH":325,"BSTAR":0.0016596,"MEAN_MOTION_DOT":0.00332273,"MEAN_MOTION_DDOT":0},{"OBJECT_NAME":"STARLINK-37105","OBJECT_ID":"2026-073J","EPOCH":"2026-04-27T12:37:51.669408","MEAN_MOTION":15.75169054,"ECCENTRICITY":0.0001272,"INCLINATION":97.2842,"RA_OF_ASC_NODE":315.6979,"ARG_OF_PERICENTER":63.3492,"MEAN_ANOMALY":296.7904,"EPHEMERIS_TYPE":0,"CLASSIFICATION_TYPE":"U","NORAD_CAT_ID":68610,"ELEMENT_SET_NO":999,"REV_AT_EPOCH":324,"BSTAR":0.00083794,"MEAN_MOTION_DOT":0.00126608,"MEAN_MOTION_DDOT":0},{"OBJECT_NAME":"STARLINK-37177","OBJECT_ID":"2026-073K","EPOCH":"2026-04-27T15:01:03.756288","MEAN_MOTION":15.80906311,"ECCENTRICITY":0.0001442,"INCLINATION":97.2832,"RA_OF_ASC_NODE":315.8694,"ARG_OF_PERICENTER":88.1449,"MEAN_ANOMALY":271.9985,"EPHEMERIS_TYPE":0,"CLASSIFICATION_TYPE":"U","NORAD_CAT_ID":68611,"ELEMENT_SET_NO":999,"REV_AT_EPOCH":326,"BSTAR":0.001177,"MEAN_MOTION_DOT":0.00232375,"MEAN_MOTION_DDOT":0},{"OBJECT_NAME":"STARLINK-36386","OBJECT_ID":"2026-073L","EPOCH":"2026-04-27T14:59:58.824960","MEAN_MOTION":15.80879879,"ECCENTRICITY":0.0001076,"INCLINATION":97.283,"RA_OF_ASC_NODE":315.8703,"ARG_OF_PERICENTER":106.4577,"MEAN_ANOMALY":253.6809,"EPHEMERIS_TYPE":0,"CLASSIFICATION_TYPE":"U","NORAD_CAT_ID":68612,"ELEMENT_SET_NO":999,"REV_AT_EPOCH":326,"BSTAR":0.00092819,"MEAN_MOTION_DOT":0.00181935,"MEAN_MOTION_DDOT":0},{"OBJECT_NAME":"STARLINK-36187","OBJECT_ID":"2026-073M","EPOCH":"2026-04-27T11:56:35.544768","MEAN_MOTION":15.80870863,"ECCENTRICITY":0.0001382,"INCLINATION":97.2831,"RA_OF_ASC_NODE":315.7368,"ARG_OF_PERICENTER":71.9511,"MEAN_ANOMALY":288.1907,"EPHEMERIS_TYPE":0,"CLASSIFICATION_TYPE":"U","NORAD_CAT_ID":68613,"ELEMENT_SET_NO":999,"REV_AT_EPOCH":324,"BSTAR":0.00093536,"MEAN_MOTION_DOT":0.00183297,"MEAN_MOTION_DDOT":0},{"OBJECT_NAME":"STARLINK-37170","OBJECT_ID":"2026-073N","EPOCH":"2026-04-27T20:00:03.000384","MEAN_MOTION":15.75211114,"ECCENTRICITY":0.0001421,"INCLINATION":97.2831,"RA_OF_ASC_NODE":316.0668,"ARG_OF_PERICENTER":99.0959,"MEAN_ANOMALY":313.25,"EPHEMERIS_TYPE":0,"CLASSIFICATION_TYPE":"U","NORAD_CAT_ID":68614,"ELEMENT_SET_NO":999,"REV_AT_EPOCH":443,"BSTAR":-0.00064007,"MEAN_MOTION_DOT":-0.00094638,"MEAN_MOTION_DDOT":0},{"OBJECT_NAME":"STARLINK-37176","OBJECT_ID":"2026-073P","EPOCH":"2026-04-27T07:18:48.349728","MEAN_MOTION":15.80856706,"ECCENTRICITY":0.0001169,"INCLINATION":97.2829,"RA_OF_ASC_NODE":315.54,"ARG_OF_PERICENTER":105.7276,"MEAN_ANOMALY":254.4121,"EPHEMERIS_TYPE":0,"CLASSIFICATION_TYPE":"U","NORAD_CAT_ID":68615,"ELEMENT_SET_NO":999,"REV_AT_EPOCH":321,"BSTAR":0.001784,"MEAN_MOTION_DOT":0.00356598,"MEAN_MOTION_DDOT":0},{"OBJECT_NAME":"STARLINK-37152","OBJECT_ID":"2026-073Q","EPOCH":"2026-04-27T12:26:39.429024","MEAN_MOTION":15.75279197,"ECCENTRICITY":0.0001444,"INCLINATION":97.2832,"RA_OF_ASC_NODE":315.7075,"ARG_OF_PERICENTER":78.9912,"MEAN_ANOMALY":281.1516,"EPHEMERIS_TYPE":0,"CLASSIFICATION_TYPE":"U","NORAD_CAT_ID":68616,"ELEMENT_SET_NO":999,"REV_AT_EPOCH":324,"BSTAR":0.0015137,"MEAN_MOTION_DOT":0.00232812,"MEAN_MOTION_DDOT":0},{"OBJECT_NAME":"STARLINK-37186","OBJECT_ID":"2026-073R","EPOCH":"2026-04-27T14:54:34.239168","MEAN_MOTION":15.80933265,"ECCENTRICITY":0.0001256,"INCLINATION":97.2831,"RA_OF_ASC_NODE":315.8745,"ARG_OF_PERICENTER":88.1984,"MEAN_ANOMALY":271.9428,"EPHEMERIS_TYPE":0,"CLASSIFICATION_TYPE":"U","NORAD_CAT_ID":68617,"ELEMENT_SET_NO":999,"REV_AT_EPOCH":326,"BSTAR":0.0015866,"MEAN_MOTION_DOT":0.00316751,"MEAN_MOTION_DDOT":0},{"OBJECT_NAME":"STARLINK-37179","OBJECT_ID":"2026-073S","EPOCH":"2026-04-27T20:00:03.000384","MEAN_MOTION":15.75098827,"ECCENTRICITY":0.0003654,"INCLINATION":97.2832,"RA_OF_ASC_NODE":316.0721,"ARG_OF_PERICENTER":91.2684,"MEAN_ANOMALY":331.1442,"EPHEMERIS_TYPE":0,"CLASSIFICATION_TYPE":"U","NORAD_CAT_ID":68618,"ELEMENT_SET_NO":999,"REV_AT_EPOCH":443,"BSTAR":0.00059056,"MEAN_MOTION_DOT":0.0008855,"MEAN_MOTION_DDOT":0}]
