STARLINK-37135          
1 68602U 26073A   26117.35228274  .00152905  00000+0  10067-2 0  9997
2 68602  97.2850 315.4760 0001352  92.2302 267.9118 15.75214737  3212
STARLINK-37189          
1 68603U 26073B   26117.64133806  .00193717  00000+0  12671-2 0  9995
2 68603  97.2833 315.8484 0001527  79.1188 281.0249 15.75250474  3266
STARLINK-37130          
1 68604U 26073C   26117.53263411  .00131625  00000+0  86898-3 0  9993
2 68604  97.2841 315.6885 0001135  75.6204 284.5187 15.75212066  3246
STARLINK-37131          
1 68605U 26073D   26117.83336806 -.00085447  00000+0 -57718-3 0  9997
2 68605  97.2834 316.0435 0001389  95.4234 260.9256 15.75212008  4432
STARLINK-37253          
1 68606U 26073E   26117.63017932 -.00888593  00000+0 -57727-2 0  9994
2 68606  97.2834 315.8639 0000938 103.4900 256.6471 15.78234650  3266
STARLINK-37246          
1 68607U 26073F   26117.53862640  .00144962  00000+0  95404-3 0  9996
2 68607  97.2844 315.6810 0001480  59.6607 300.4805 15.75245738  3249
STARLINK-37243          
1 68608U 26073G   26117.62799205  .00220895  00000+0  11207-2 0  9991
2 68608  97.2832 315.8668 0001172  89.0309 271.1093 15.80899418  3265
STARLINK-37250          
1 68609U 26073H   26117.56393624  .00332273  00000+0  16596-2 0  9990
2 68609  97.2828 315.7999 0001628 103.1710 256.9740 15.80955332  3254
STARLINK-37105          
1 68610U 26073J   26117.52629247  .00126608  00000+0  83794-3 0  9999
2 68610  97.2842 315.6979 0001272  63.3492 296.7904 15.75169054  3243
STARLINK-37177          
1 68611U 26073K   26117.62573792  .00232375  00000+0  11770-2 0  9997
2 68611  97.2832 315.8694 0001442  88.1449 271.9985 15.80906311  3262
STARLINK-36386          
1 68612U 26073L   26117.62498640  .00181935  00000+0  92819-3 0  9995
2 68612  97.2830 315.8703 0001076 106.4577 253.6809 15.80879879  3261
STARLINK-36187          
1 68613U 26073M   26117.49763362  .00183297  00000+0  93536-3 0  9997
2 68613  97.2831 315.7368 0001382  71.9511 288.1907 15.80870863  3247
STARLINK-37170          
1 68614U 26073N   26117.83336806 -.00094638  00000+0 -64007-3 0  9998
2 68614  97.2831 316.0668 0001421  99.0959 313.2500 15.75211114  4439
STARLINK-37176          
1 68615U 26073P   26117.30472627  .00356598  00000+0  17840-2 0  9999
2 68615  97.2829 315.5400 0001169 105.7276 254.4121 15.80856706  3219
STARLINK-37152          
1 68616U 26073Q   26117.51851191  .00232812  00000+0  15137-2 0  9999
2 68616  97.2832 315.7075 0001444  78.9912 281.1516 15.75279197  3243
STARLINK-37186          
1 68617U 26073R   26117.62122962  .00316751  00000+0  15866-2 0  9993
2 68617  97.2831 315.8745 0001256  88.1984 271.9428 15.80933265  3261
STARLINK-37179          
1 68618U 26073S   26117.83336806  .00088550  00000+0  59056-3 0  9994
2 68618  97.2832 316.0721 0003654  91.2684 331.1442 15.75098827  4431
